NORAD_CAT_ID,OBJECT_NAME,OBJECT_TYPE,EPOCH,MEAN_MOTION,ECCENTRICITY,INCLINATION,RA_OF_ASC_NODE,ARG_OF_PERICENTER,MEAN_ANOMALY,BSTAR,MEAN_MOTION_DOT,MEAN_MOTION_DDOT,TLE_LINE0,TLE_LINE1,TLE_LINE2,SEMIMAJOR_AXIS,PERIOD,APOGEE,PERIGEE,DECAYED
51780.0,STARLINK-3617,PAYLOAD,2022-10-25 04:11:34,15.08837198,0.0001438,53.2174,107.6184,65.601,294.5133,-7.2332e-05,-1.439e-05,0.0,0 STARLINK-3617,1 51780U 22017N   22298.17470314 -.00001439  00000-0 -72332-4 0  9993,2 51780  53.2174 107.6184 0001438  65.6010 294.5133 15.08837198 38194,6917.889,95.438,540.749,538.759,0.0
51780.0,STARLINK-3617,PAYLOAD,2022-10-25 18:30:04,15.08817583,0.0001584,53.2175,104.9415,63.8122,296.3033,-0.00010293,-1.925e-05,0.0,0 STARLINK-3617,1 51780U 22017N   22298.77088698 -.00001925  00000-0 -10293-3 0  9996,2 51780  53.2175 104.9415 0001584  63.8122 296.3033 15.08817583 38283,6917.949000000001,95.439,540.91,538.7180000000002,0.0
51780.0,STARLINK-3617,PAYLOAD,2022-10-26 18:20:51,15.08830516,0.0001928,53.2193,100.4784,52.3964,307.7203,8.2894e-05,1.031e-05,0.0,0 STARLINK-3617,1 51780U 22017N   22299.76448198  .00001031  00000-0  82894-4 0  9994,2 51780  53.2193 100.4784 0001928  52.3964 307.7203 15.08830516 38436,6917.909000000002,95.438,541.1080000000002,538.441,0.0
51780.0,STARLINK-3617,PAYLOAD,2022-10-27 10:14:42,15.08820785,0.0001467,53.2182,97.5075,61.5724,298.5416,0.00032657,4.911e-05,0.0,0 STARLINK-3617,1 51780U 22017N   22300.42688147  .00004911  00000-0  32657-3 0  9991,2 51780  53.2182  97.5075 0001467  61.5724 298.5416 15.08820785 36840,6917.939,95.439,540.819,538.789,0.0
51780.0,STARLINK-3617,PAYLOAD,2022-10-27 18:11:36,15.08924206,0.000233,53.2196,96.0177,37.1998,322.9156,-0.0008561,-0.00013919,0.0,0 STARLINK-3617,1 51780U 22017N   22300.75806526 -.00013919  00000-0 -85610-3 0  9997,2 51780  53.2196  96.0177 0002330  37.1998 322.9156 15.08924206 38583,6917.623000000001,95.432,541.1,537.876,0.0
51780.0,STARLINK-3617,PAYLOAD,2022-10-28 19:37:47,15.08849702,0.0001538,53.2179,91.2632,60.3337,299.7808,7.2235e-05,8.62e-06,0.0,0 STARLINK-3617,1 51780U 22017N   22301.81790988  .00000862  00000-0  72235-4 0  9990,2 51780  53.2179  91.2632 0001538  60.3337 299.7808 15.08849702 38741,6917.851,95.437,540.78,538.6519999999998,0.0
51780.0,STARLINK-3617,PAYLOAD,2022-10-28 22:48:33,15.08852268,0.0001545,53.2179,90.6689,57.8556,302.2586,9.2359e-05,1.183e-05,0.0,0 STARLINK-3617,1 51780U 22017N   22301.95038670  .00001183  00000-0  92359-4 0  9994,2 51780  53.2179  90.6689 0001545  57.8556 302.2586 15.08852268 37077,6917.843000000003,95.437,540.7769999999998,538.639,0.0
51780.0,STARLINK-3617,PAYLOAD,2022-10-29 19:28:33,15.08857578,0.0001546,53.2179,86.8036,53.6221,306.4914,3.4073000000000004e-05,2.55e-06,0.0,0 STARLINK-3617,1 51780U 22017N   22302.81149694  .00000255  00000-0  34073-4 0  9997,2 51780  53.2179  86.8036 0001546  53.6221 306.4914 15.08857578 37209,6917.8269999999975,95.436,540.761,538.622,0.0
51780.0,STARLINK-3617,PAYLOAD,2022-10-30 11:22:24,15.08850229,0.0001479,53.2181,83.8293,52.0475,308.065,7.0179e-05,8.29e-06,0.0,0 STARLINK-3617,1 51780U 22017N   22303.47389169  .00000829  00000-0  70179-4 0  9997,2 51780  53.2181  83.8293 0001479  52.0475 308.0650 15.08850229 37305,6917.849,95.437,540.737,538.691,0.0
51780.0,STARLINK-3617,PAYLOAD,2022-10-31 11:13:12,15.08830395,0.0001459,53.2191,79.3696,43.1753,316.9353,2.1582e-05,5.5e-07,0.0,0 STARLINK-3617,1 51780U 22017N   22304.46750117  .00000055  00000-0  21582-4 0  9997,2 51780  53.2191  79.3696 0001459  43.1753 316.9353 15.08830395 37457,6917.91,95.438,540.784,538.765,0.0
51780.0,STARLINK-3617,PAYLOAD,2022-10-31 19:10:07,15.08834758,0.000138,53.2191,77.8824,44.88399999999999,315.2263,6.8604e-05,8.04e-06,0.0,0 STARLINK-3617,1 51780U 22017N   22304.79869740  .00000804  00000-0  68604-4 0  9994,2 51780  53.2191  77.8824 0001380  44.8840 315.2263 15.08834758 37506,6917.896,95.438,540.716,538.807,0.0
51780.0,STARLINK-3617,PAYLOAD,2022-11-01 11:03:58,15.08840143,0.000133,53.2183,74.9067,58.2875,301.8247,2.9105e-05,1.75e-06,0.0,0 STARLINK-3617,1 51780U 22017N   22305.46109432  .00000175  00000-0  29105-4 0  9998,2 51780  53.2183  74.9067 0001330  58.2875 301.8247 15.08840143 37605,6917.88,95.438,540.665,538.825,0.0
51780.0,STARLINK-3617,PAYLOAD,2022-11-01 15:50:08,15.08836308,0.0001605,53.2182,74.0165,50.4953,309.6181,4.6644e-06,-2.14e-06,0.0,0 STARLINK-3617,1 51780U 22017N   22305.65981881 -.00000214  00000-0  46644-5 0  9998,2 51780  53.2182  74.0165 0001605  50.4953 309.6181 15.08836308 37634,6917.892,95.438,540.867,538.646,0.0
51780.0,STARLINK-3617,PAYLOAD,2022-11-02 04:33:13,15.08834364,0.0001508,53.2186,71.6377,47.0474,313.0644,5.7686e-05,6.3e-06,0.0,0 STARLINK-3617,1 51780U 22017N   22306.18973955  .00000630  00000-0  57686-4 0  9998,2 51780  53.2186  71.6377 0001508  47.0474 313.0644 15.08834364 39408,6917.898,95.438,540.806,538.719,0.0
51780.0,STARLINK-3617,PAYLOAD,2022-11-02 10:54:46,15.08826846,0.0001615,53.2182,70.4483,51.9587,308.1551,1.3513e-05,-7.3e-07,0.0,0 STARLINK-3617,1 51780U 22017N   22306.45470733 -.00000073  00000-0  13513-4 0  9997,2 51780  53.2182  70.4483 0001615  51.9587 308.1551 15.08826846 37751,6917.920999999999,95.438,540.903,538.668,0.0
51780.0,STARLINK-3617,PAYLOAD,2022-11-02 15:40:56,15.08822719,0.0001664,53.2181,69.5559,54.7041,305.4107,-1.9821e-05,-6.03e-06,0.0,0 STARLINK-3617,1 51780U 22017N   22306.65343269 -.00000603  00000-0 -19821-4 0  9990,2 51780  53.2181  69.5559 0001664  54.7041 305.4107 15.08822719 37788,6917.933000000001,95.439,540.9490000000002,538.6469999999998,0.0
51780.0,STARLINK-3617,PAYLOAD,2022-11-03 10:45:33,15.08837239,0.0001793,53.218,65.9873,56.371,303.7453,1.4414e-05,-5.9e-07,0.0,0 STARLINK-3617,1 51780U 22017N   22307.44830722 -.00000059  00000-0  14414-4 0  9990,2 51780  53.2180  65.9873 0001793  56.3710 303.7453 15.08837239 39599,6917.889,95.438,540.994,538.513,0.0
51780.0,STARLINK-3617,PAYLOAD,2022-11-04 02:39:23,15.08858866,0.0001814,53.2184,63.0141,56.619,303.4975,0.00018428,2.647e-05,0.0,0 STARLINK-3617,1 51780U 22017N   22308.11068503  .00002647  00000-0  18428-3 0  9997,2 51780  53.2184  63.0141 0001814  56.6190 303.4975 15.08858866 39695,6917.823,95.436,540.943,538.433,0.0
51780.0,STARLINK-3617,PAYLOAD,2022-11-04 13:47:05,15.08848097,0.0002207,53.2204,60.9361,22.0475,338.0612,0.00014844,2.075e-05,0.0,0 STARLINK-3617,1 51780U 22017N   22308.57437235  .00002075  00000-0  14844-3 0  9992,2 51780  53.2204  60.9361 0002207  22.0475 338.0612 15.08848097 39763,6917.856,95.437,541.247,538.194,0.0
51780.0,STARLINK-3617,PAYLOAD,2022-11-04 16:57:52,15.08836263,0.000183,53.2188,60.3379,49.7941,310.3211,8.1211e-05,1.004e-05,0.0,0 STARLINK-3617,1 51780U 22017N   22308.70686030  .00001004  00000-0  81211-4 0  9990,2 51780  53.2188  60.3379 0001830  49.7941 310.3211 15.08836263 39784,6917.892,95.438,541.023,538.491,0.0
51780.0,STARLINK-3617,PAYLOAD,2022-11-05 08:51:44,15.08830406,0.0001483,53.2202,57.365,33.4974,326.6111,-8.1417e-05,-1.583e-05,0.0,0 STARLINK-3617,1 51780U 22017N   22309.36926721 -.00001583  00000-0 -81417-4 0  9999,2 51780  53.2202  57.3650 0001483  33.4974 326.6111 15.08830406 39882,6917.91,95.438,540.8009999999998,538.749,0.0
51780.0,STARLINK-3617,PAYLOAD,2022-11-05 13:37:55,15.08821483,0.0001821,53.219,56.4735,47.8363,312.2783,-0.00018727,-3.266e-05,0.0,0 STARLINK-3617,1 51780U 22017N   22309.56800126 -.00003266  00000-0 -18727-3 0  9994,2 51780  53.2190  56.4735 0001821  47.8363 312.2783 15.08821483 38227,6917.937,95.439,541.062,538.5419999999998,0.0
51780.0,STARLINK-3617,PAYLOAD,2022-11-06 02:20:59,15.08827753,0.0002375,53.2172,54.0935,53.6928,306.4283,-0.00010703,-1.991e-05,0.0,0 STARLINK-3617,1 51780U 22017N   22310.09791559 -.00001991  00000-0 -10703-3 0  9992,2 51780  53.2172  54.0935 0002375  53.6928 306.4283 15.08827753 39991,6917.918000000002,95.438,541.4259999999998,538.14,0.0
51780.0,STARLINK-3617,PAYLOAD,2022-11-06 11:53:18,15.08832949,0.0001645,53.22,52.3107,43.2939,316.8183,-9.991e-05,-1.877e-05,0.0,0 STARLINK-3617,1 51780U 22017N   22310.49535303 -.00001877  00000-0 -99910-4 0  9990,2 51780  53.2200  52.3107 0001645  43.2939 316.8183 15.08832949 38368,6917.901999999999,95.438,540.905,538.629,0.0
51780.0,STARLINK-3617,PAYLOAD,2022-11-07 02:11:46,15.0883485,0.0001401,53.2185,49.6337,55.1843,304.9281,5.6648e-05,6.14e-06,0.0,0 STARLINK-3617,1 51780U 22017N   22311.09150782  .00000614  00000-0  56648-4 0  9998,2 51780  53.2185  49.6337 0001401  55.1843 304.9281 15.08834850 40149,6917.896,95.438,540.73,538.7919999999998,0.0
51780.0,STARLINK-3617,PAYLOAD,2022-11-07 13:19:29,15.08835701,0.0001884,53.2175,47.552,39.1296,320.9832,-0.00016946,-2.984e-05,0.0,0 STARLINK-3617,1 51780U 22017N   22311.55519941 -.00002984  00000-0 -16946-3 0  9995,2 51780  53.2175  47.5520 0001884  39.1296 320.9832 15.08835701 40212,6917.894,95.438,541.062,538.455,0.0
51780.0,STARLINK-3617,PAYLOAD,2022-11-07 16:30:15,15.08816462,0.0001788,53.218,46.9568,43.6242,316.4891,0.00010703,1.415e-05,0.0,0 STARLINK-3617,1 51780U 22017N   22311.68768470  .00001415  00000-0  10703-3 0  9993,2 51780  53.2180  46.9568 0001788  43.6242 316.4891 15.08816462 40237,6917.9519999999975,95.439,541.054,538.58,0.0
51780.0,STARLINK-3617,PAYLOAD,2022-11-08 06:48:42,15.08843959,0.0001712,53.2197,44.2826,32.1386,327.971,0.00015532,2.185e-05,0.0,0 STARLINK-3617,1 51780U 22017N   22312.28382642  .00002185  00000-0  15532-3 0  9993,2 51780  53.2197  44.2826 0001712  32.1386 327.9710 15.08843959 40320,6917.868,95.437,540.918,538.549,0.0
51780.0,STARLINK-3617,PAYLOAD,2022-11-08 09:59:28,15.08849895,0.0001791,53.2176,43.6859,61.635,298.4823,0.00018035,2.584e-05,0.0,0 STARLINK-3617,1 51780U 22017N   22312.41630081  .00002584  00000-0  18035-3 0  9995,2 51780  53.2176  43.6859 0001791  61.6350 298.4823 15.08849895 40345,6917.85,95.437,540.9540000000002,538.476,0.0
